start=new Date('2022-08-07T00:00:00.000Z').valueOf();
sats=[{"SITE":"AFETR","EPHEMERIS_TYPE":"0","ARG_OF_PERICENTER":"87.9880","EPOCH":"2022-08-06T15:38:36.772800","ECCENTRICITY":"0.00013730","PERIAPSIS":"546.267","PERIOD":"95.592","LAUNCH_DATE":"2021-05-15","ELEMENT_SET_NO":"999","FILE":"3530813","OBJECT_ID":"2021-041AX","REV_AT_EPOCH":"6791","MEAN_ELEMENT_THEORY":"SGP4","REF_FRAME":"TEME","NORAD_CAT_ID":"48598","MEAN_MOTION_DDOT":"0.0000000000000","RCS_SIZE":"LARGE","BSTAR":"0.00015262000000","CENTER_NAME":"EARTH","MEAN_MOTION_DOT":"0.00001992","TLE_LINE1":"1 48598U 21041AX  22218.65181450  .00001992  00000-0  15262-3 0  9997","DECAY_DATE":null,"GP_ID":"209725638","APOAPSIS":"548.169","INCLINATION":"53.0544","MEAN_ANOMALY":"272.1266","CLASSIFICATION_TYPE":"U","SEMIMAJOR_AXIS":"6925.353","OBJECT_NAME":"STARLINK-2256","TIME_SYSTEM":"UTC","OBJECT_TYPE":"PAYLOAD","RA_OF_ASC_NODE":"267.1010","MEAN_MOTION":"15.06398553","COUNTRY_CODE":"US","TLE_LINE2":"2 48598  53.0544 267.1010 0001373  87.9880 272.1266 15.06398553 67912"},{"OBJECT_NAME":"STARLINK-2274","RA_OF_ASC_NODE":"242.5823","OBJECT_TYPE":"PAYLOAD","TIME_SYSTEM":"UTC","MEAN_MOTION":"15.06395849","COUNTRY_CODE":"US","TLE_LINE2":"2 48599  53.0548 242.5823 0001512  72.6347 287.4807 15.06395849 69063","TLE_LINE1":"1 48599U 21041AY  22218.54538699  .00001053  00000-0  89554-4 0  9991","DECAY_DATE":null,"GP_ID":"209724386","APOAPSIS":"548.273","INCLINATION":"53.0548","MEAN_ANOMALY":"287.4807","CLASSIFICATION_TYPE":"U","SEMIMAJOR_AXIS":"6925.361","ECCENTRICITY":"0.00015120","PERIAPSIS":"546.179","LAUNCH_DATE":"2021-05-15","PERIOD":"95.592","ELEMENT_SET_NO":"999","FILE":"3530813","OBJECT_ID":"2021-041AY","REV_AT_EPOCH":"6906","REF_FRAME":"TEME","MEAN_ELEMENT_THEORY":"SGP4","NORAD_CAT_ID":"48599","MEAN_MOTION_DDOT":"0.0000000000000","RCS_SIZE":"LARGE","CENTER_NAME":"EARTH","BSTAR":"0.00008955400000","MEAN_MOTION_DOT":"0.00001053","SITE":"AFETR","EPHEMERIS_TYPE":"0","ARG_OF_PERICENTER":"72.6347","EPOCH":"2022-08-06T13:05:21.435936"},{"GP_ID":"209724636","APOAPSIS":"548.098","INCLINATION":"53.0545","TLE_LINE1":"1 48600U 21041AZ  22218.58270426  .00001719  00000-0  13423-3 0  9999","DECAY_DATE":null,"CLASSIFICATION_TYPE":"U","SEMIMAJOR_AXIS":"6925.339","MEAN_ANOMALY":"264.6014","OBJECT_NAME":"STARLINK-2275","TIME_SYSTEM":"UTC","OBJECT_TYPE":"PAYLOAD","RA_OF_ASC_NODE":"257.4033","TLE_LINE2":"2 48600  53.0545 257.4033 0001291  95.5122 264.6014 15.06403052 68859","MEAN_MOTION":"15.06403052","COUNTRY_CODE":"US","SITE":"AFETR","EPHEMERIS_TYPE":"0","ARG_OF_PERICENTER":"95.5122","EPOCH":"2022-08-06T13:59:05.648064","OBJECT_ID":"2021-041AZ","REV_AT_EPOCH":"6885","PERIAPSIS":"546.310","ECCENTRICITY":"0.00012910","ELEMENT_SET_NO":"999","LAUNCH_DATE":"2021-05-15","PERIOD":"95.592","FILE":"3530813","RCS_SIZE":"LARGE","MEAN_MOTION_DDOT":"0.0000000000000","BSTAR":"0.00013423000000","CENTER_NAME":"EARTH","MEAN_MOTION_DOT":"0.00001719","REF_FRAME":"TEME","MEAN_ELEMENT_THEORY":"SGP4","NORAD_CAT_ID":"48600"},{"MEAN_ELEMENT_THEORY":"SGP4","REF_FRAME":"TEME","NORAD_CAT_ID":"48602","BSTAR":"0.00011271000000","CENTER_NAME":"EARTH","MEAN_MOTION_DOT":"0.00001398","RCS_SIZE":"LARGE","MEAN_MOTION_DDOT":"0.0000000000000","FILE":"3530813","ECCENTRICITY":"0.00015510","PERIAPSIS":"546.130","LAUNCH_DATE":"2021-05-15","ELEMENT_SET_NO":"999","PERIOD":"95.592","OBJECT_ID":"2021-041BB","REV_AT_EPOCH":"6908","ARG_OF_PERICENTER":"67.1768","EPOCH":"2022-08-06T18:39:44.275392","EPHEMERIS_TYPE":"0","SITE":"AFETR","COUNTRY_CODE":"US","MEAN_MOTION":"15.06402984","TLE_LINE2":"2 48602  53.0529 241.5401 0001551  67.1768 292.9385 15.06402984 69080","TIME_SYSTEM":"UTC","OBJECT_TYPE":"PAYLOAD","RA_OF_ASC_NODE":"241.5401","OBJECT_NAME":"STARLINK-2713","MEAN_ANOMALY":"292.9385","CLASSIFICATION_TYPE":"U","SEMIMAJOR_AXIS":"6925.339","DECAY_DATE":null,"TLE_LINE1":"1 48602U 21041BB  22218.77759578  .00001398  00000-0  11271-3 0  9994","APOAPSIS":"548.279","INCLINATION":"53.0529","GP_ID":"209725888"},{"APOAPSIS":"548.282","INCLINATION":"53.0535","GP_ID":"209726139","DECAY_DATE":null,"TLE_LINE1":"1 48603U 21041BC  22218.75684066  .00000788  00000-0  71806-4 0  9995","CLASSIFICATION_TYPE":"U","SEMIMAJOR_AXIS":"6925.363","MEAN_ANOMALY":"300.5836","TIME_SYSTEM":"UTC","OBJECT_TYPE":"PAYLOAD","RA_OF_ASC_NODE":"236.6171","OBJECT_NAME":"STARLINK-2714","TLE_LINE2":"2 48603  53.0535 236.6171 0001522  59.5303 300.5836 15.06395407 69162","COUNTRY_CODE":"US","MEAN_MOTION":"15.06395407","EPHEMERIS_TYPE":"0","SITE":"AFETR","ARG_OF_PERICENTER":"59.5303","EPOCH":"2022-08-06T18:09:51.033024","OBJECT_ID":"2021-041BC","REV_AT_EPOCH":"6916","FILE":"3530813","PERIAPSIS":"546.174","ECCENTRICITY":"0.00015220","ELEMENT_SET_NO":"999","LAUNCH_DATE":"2021-05-15","PERIOD":"95.592","BSTAR":"0.00007180600000","CENTER_NAME":"EARTH","MEAN_MOTION_DOT":"0.00000788","RCS_SIZE":"LARGE","MEAN_MOTION_DDOT":"0.0000000000000","MEAN_ELEMENT_THEORY":"SGP4","REF_FRAME":"TEME","NORAD_CAT_ID":"48603"},{"ECCENTRICITY":"0.00014910","PERIAPSIS":"546.196","PERIOD":"95.592","LAUNCH_DATE":"2021-05-15","ELEMENT_SET_NO":"999","FILE":"3530813","OBJECT_ID":"2021-041BD","REV_AT_EPOCH":"6875","REF_FRAME":"TEME","MEAN_ELEMENT_THEORY":"SGP4","NORAD_CAT_ID":"48604","RCS_SIZE":"LARGE","MEAN_MOTION_DDOT":"0.0000000000000","CENTER_NAME":"EARTH","BSTAR":"0.00000270170000","MEAN_MOTION_DOT":"-0.00000241","SITE":"AFETR","EPHEMERIS_TYPE":"0","ARG_OF_PERICENTER":"70.8656","EPOCH":"2022-08-06T19:48:05.400864","OBJECT_NAME":"STARLINK-2757","OBJECT_TYPE":"PAYLOAD","RA_OF_ASC_NODE":"266.3283","TIME_SYSTEM":"UTC","MEAN_MOTION":"15.06394976","COUNTRY_CODE":"US","TLE_LINE2":"2 48604  53.0550 266.3283 0001491  70.8656 289.2495 15.06394976 68754","DECAY_DATE":null,"TLE_LINE1":"1 48604U 21041BD  22218.82506251 -.00000241  00000-0  27017-5 0  9994","GP_ID":"209724887","APOAPSIS":"548.262","INCLINATION":"53.0550","MEAN_ANOMALY":"289.2495","CLASSIFICATION_TYPE":"U","SEMIMAJOR_AXIS":"6925.364"},{"APOAPSIS":"548.208","INCLINATION":"53.0532","GP_ID":"209693789","TLE_LINE1":"1 48638U 21044A   22218.44492373 -.00000722  00000-0 -29569-4 0  9999","DECAY_DATE":null,"CLASSIFICATION_TYPE":"U","SEMIMAJOR_AXIS":"6925.349","MEAN_ANOMALY":"278.2886","OBJECT_TYPE":"PAYLOAD","TIME_SYSTEM":"UTC","RA_OF_ASC_NODE":"243.0348","OBJECT_NAME":"STARLINK-2758","TLE_LINE2":"2 48638  53.0532 243.0348 0001434  81.8266 278.2886 15.06399701 66145","COUNTRY_CODE":"US","MEAN_MOTION":"15.06399701","EPHEMERIS_TYPE":"0","SITE":"AFETR","ARG_OF_PERICENTER":"81.8266","EPOCH":"2022-08-06T10:40:41.410272","OBJECT_ID":"2021-044A","REV_AT_EPOCH":"6614","FILE":"3530579","PERIAPSIS":"546.221","ECCENTRICITY":"0.00014340","LAUNCH_DATE":"2021-05-26","PERIOD":"95.592","ELEMENT_SET_NO":"999","CENTER_NAME":"EARTH","BSTAR":"-0.00002956900000","MEAN_MOTION_DOT":"-0.00000722","MEAN_MOTION_DDOT":"0.0000000000000","RCS_SIZE":"LARGE","REF_FRAME":"TEME","MEAN_ELEMENT_THEORY":"SGP4","NORAD_CAT_ID":"48638"},{"TIME_SYSTEM":"UTC","OBJECT_TYPE":"PAYLOAD","RA_OF_ASC_NODE":"241.6164","OBJECT_NAME":"STARLINK-2739","COUNTRY_CODE":"US","MEAN_MOTION":"15.06403308","TLE_LINE2":"2 48639  53.0543 241.6164 0001419  64.7188 295.3948 15.06403308 66197","TLE_LINE1":"1 48639U 21044B   22218.76190622  .00001061  00000-0  90085-4 0  9993","DECAY_DATE":null,"APOAPSIS":"548.186","INCLINATION":"53.0543","GP_ID":"209725643","MEAN_ANOMALY":"295.3948","CLASSIFICATION_TYPE":"U","SEMIMAJOR_AXIS":"6925.338","FILE":"3530813","ECCENTRICITY":"0.00014190","PERIAPSIS":"546.221","ELEMENT_SET_NO":"999","LAUNCH_DATE":"2021-05-26","PERIOD":"95.592","OBJECT_ID":"2021-044B","REV_AT_EPOCH":"6619","MEAN_ELEMENT_THEORY":"SGP4","REF_FRAME":"TEME","NORAD_CAT_ID":"48639","CENTER_NAME":"EARTH","BSTAR":"0.00009008500000","MEAN_MOTION_DOT":"0.00001061","MEAN_MOTION_DDOT":"0.0000000000000","RCS_SIZE":"LARGE","EPHEMERIS_TYPE":"0","SITE":"AFETR","ARG_OF_PERICENTER":"64.7188","EPOCH":"2022-08-06T18:17:08.697408"},{"CLASSIFICATION_TYPE":"U","SEMIMAJOR_AXIS":"6925.347","MEAN_ANOMALY":"289.2887","GP_ID":"209724391","APOAPSIS":"548.104","INCLINATION":"53.0542","DECAY_DATE":null,"TLE_LINE1":"1 48640U 21044C   22218.75551665  .00001180  00000-0  98070-4 0  9996","TLE_LINE2":"2 48640  53.0542 241.9167 0001289  70.8242 289.2887 15.06400574 66183","MEAN_MOTION":"15.06400574","COUNTRY_CODE":"US","OBJECT_NAME":"STARLINK-2736","OBJECT_TYPE":"PAYLOAD","RA_OF_ASC_NODE":"241.9167","TIME_SYSTEM":"UTC","ARG_OF_PERICENTER":"70.8242","EPOCH":"2022-08-06T18:07:56.638560","SITE":"AFETR","EPHEMERIS_TYPE":"0","RCS_SIZE":"LARGE","MEAN_MOTION_DDOT":"0.0000000000000","BSTAR":"0.00009807000000","CENTER_NAME":"EARTH","MEAN_MOTION_DOT":"0.00001180","REF_FRAME":"TEME","MEAN_ELEMENT_THEORY":"SGP4","NORAD_CAT_ID":"48640","OBJECT_ID":"2021-044C","REV_AT_EPOCH":"6618","PERIAPSIS":"546.319","ECCENTRICITY":"0.00012890","LAUNCH_DATE":"2021-05-26","ELEMENT_SET_NO":"999","PERIOD":"95.592","FILE":"3530813"},{"COUNTRY_CODE":"US","MEAN_MOTION":"15.06401577","TLE_LINE2":"2 48641  53.0530 246.5809 0001408  66.0714 294.0423 15.06401577 66127","OBJECT_TYPE":"PAYLOAD","TIME_SYSTEM":"UTC","RA_OF_ASC_NODE":"246.5809","OBJECT_NAME":"STARLINK-2754","MEAN_ANOMALY":"294.0423","CLASSIFICATION_TYPE":"U","SEMIMAJOR_AXIS":"6925.344","TLE_LINE1":"1 48641U 21044D   22218.76791645  .00001249  00000-0  10271-3 0  9994","DECAY_DATE":null,"APOAPSIS":"548.184","INCLINATION":"53.0530","GP_ID":"209724641","MEAN_ELEMENT_THEORY":"SGP4","REF_FRAME":"TEME","NORAD_CAT_ID":"48641","BSTAR":"0.00010271000000","CENTER_NAME":"EARTH","MEAN_MOTION_DOT":"0.00001249","RCS_SIZE":"LARGE","MEAN_MOTION_DDOT":"0.0000000000000","FILE":"3530813","PERIAPSIS":"546.234","ECCENTRICITY":"0.00014080","LAUNCH_DATE":"2021-05-26","ELEMENT_SET_NO":"999","PERIOD":"95.592","OBJECT_ID":"2021-044D","REV_AT_EPOCH":"6612","ARG_OF_PERICENTER":"66.0714","EPOCH":"2022-08-06T18:25:47.981280","EPHEMERIS_TYPE":"0","SITE":"AFETR"}];
